NORAD_CAT_ID,OBJECT_NAME,OBJECT_TYPE,EPOCH,MEAN_MOTION,ECCENTRICITY,INCLINATION,RA_OF_ASC_NODE,ARG_OF_PERICENTER,MEAN_ANOMALY,BSTAR,MEAN_MOTION_DOT,MEAN_MOTION_DDOT,TLE_LINE0,TLE_LINE1,TLE_LINE2,SEMIMAJOR_AXIS,PERIOD,APOGEE,PERIGEE,DECAYED
55316.0,STARLINK-5257,PAYLOAD,2024-07-04 22:57:03,14.98327538,0.0002594,70.0003,109.274,272.0301,88.0561,0.00017249,1.966e-05,0.0,0 STARLINK-5257,1 55316U 23010AZ  24186.95629356  .00001966  00000-0  17249-3 0  9990,2 55316  70.0003 109.2740 0002594 272.0301  88.0561 14.98327538 82862,6950.201,96.107,573.868,570.263,0.0
55316.0,STARLINK-5257,PAYLOAD,2024-07-05 11:46:08,14.98327648,0.0002609,69.9997,107.9266,271.3924,88.6936,3.2446e-05,2.94e-06,0.0,0 STARLINK-5257,1 55316U 23010AZ  24187.49037671  .00000294  00000-0  32446-4 0  9993,2 55316  69.9997 107.9266 0002609 271.3924  88.6936 14.98327648 82942,6950.2,96.107,573.878,570.252,0.0
55316.0,STARLINK-5257,PAYLOAD,2024-07-05 21:22:56,14.98331225,0.0002689,70.0002,106.9176,267.6709,92.4142,-8.1936e-05,-1.07e-05,0.0,0 STARLINK-5257,1 55316U 23010AZ  24187.89093680 -.00001070  00000-0 -81936-4 0  9992,2 55316  70.0002 106.9176 0002689 267.6709  92.4142 14.98331225 83004,6950.189,96.107,573.923,570.185,0.0
55316.0,STARLINK-5257,PAYLOAD,2024-07-06 03:47:28,14.9833473,0.0002617,70.0001,106.2443,265.809,94.277,-4.3977e-05,-6.18e-06,0.0,0 STARLINK-5257,1 55316U 23010AZ  24188.15797259 -.00000618  00000-0 -43977-4 0  9995,2 55316  70.0001 106.2443 0002617 265.8090  94.2770 14.98334730 81860,6950.178,96.107,573.862,570.224,0.0
55316.0,STARLINK-5257,PAYLOAD,2024-07-06 11:48:09,14.98334703,0.0002762,69.9997,105.4028,266.6127,93.4716,-8.7492e-05,-1.137e-05,0.0,0 STARLINK-5257,1 55316U 23010AZ  24188.49177197 -.00001137  00000-0 -87492-4 0  9992,2 55316  69.9997 105.4028 0002762 266.6127  93.4716 14.98334703 83090,6950.178,96.107,573.963,570.124,0.0
55316.0,STARLINK-5257,PAYLOAD,2024-07-06 21:24:57,14.98327077,0.000266,70.0,104.3932,266.1927,93.8928,-3.0931e-05,-4.62e-06,0.0,0 STARLINK-5257,1 55316U 23010AZ  24188.89233654 -.00000462  00000-0 -30931-4 0  9993,2 55316  70.0000 104.3932 0002660 266.1927  93.8928 14.98327077 81970,6950.202,96.107,573.916,570.218,0.0
55316.0,STARLINK-5257,PAYLOAD,2024-07-07 03:49:29,14.9833201,0.0002713,69.9998,103.7199,264.8556,95.2293,-1.6062e-05,-2.85e-06,0.0,0 STARLINK-5257,1 55316U 23010AZ  24189.15937305 -.00000285  00000-0 -16062-4 0  9999,2 55316  69.9998 103.7199 0002713 264.8556  95.2293 14.98332010 83193,6950.187,96.107,573.937,570.166,0.0
55316.0,STARLINK-5257,PAYLOAD,2024-07-07 19:50:50,14.98330462,0.000279,69.9998,102.0367,269.4727,90.6112,9.8157e-05,1.078e-05,0.0,0 STARLINK-5257,1 55316U 23010AZ  24189.82697142  .00001078  00000-0  98157-4 0  9999,2 55316  69.9998 102.0367 0002790 269.4727  90.6112 14.98330462 82117,6950.191,96.107,573.996,570.117,0.0
55316.0,STARLINK-5257,PAYLOAD,2024-07-08 11:52:11,14.98330149,0.0002806,69.9997,100.3523,270.7363,89.3475,3.6885e-05,3.47e-06,0.0,0 STARLINK-5257,1 55316U 23010AZ  24190.49457208  .00000347  00000-0  36885-4 0  9999,2 55316  69.9997 100.3523 0002806 270.7363  89.3475 14.98330149 83390,6950.192,96.107,574.008,570.107,0.0
55316.0,STARLINK-5257,PAYLOAD,2024-07-08 19:52:51,14.98329282,0.0002865,69.9995,99.5104,270.3046,89.7785,0.00010881,1.206e-05,0.0,0 STARLINK-5257,1 55316U 23010AZ  24190.82837076  .00001206  00000-0  10881-3 0  9993,2 55316  69.9995  99.5104 0002865 270.3046  89.7785 14.98329282 82260,6950.195,96.107,574.051,570.069,0.0
55316.0,STARLINK-5257,PAYLOAD,2024-07-08 21:28:59,14.98329761,0.0002865,69.9995,99.342,270.2484,89.8346,0.00011212,1.245e-05,0.0,0 STARLINK-5257,1 55316U 23010AZ  24190.89513043  .00001245  00000-0  11212-3 0  9997,2 55316  69.9995  99.3420 0002865 270.2484  89.8346 14.98329761 83452,6950.194,96.107,574.05,570.067,0.0
55316.0,STARLINK-5257,PAYLOAD,2024-07-09 03:53:31,14.98334815,0.0002883,69.9996,98.6685,269.7732,90.3097,0.00010243,1.13e-05,0.0,0 STARLINK-5257,1 55316U 23010AZ  24191.16216685  .00001130  00000-0  10243-3 0  9996,2 55316  69.9996  98.6685 0002883 269.7732  90.3097 14.98334815 83497,6950.178,96.107,574.047,570.039,0.0
55316.0,STARLINK-5257,PAYLOAD,2024-07-09 21:31:00,14.98329881,0.0002783,69.9999,96.8169,270.7026,89.3814,-4.2044e-05,-5.95e-06,0.0,0 STARLINK-5257,1 55316U 23010AZ  24191.89653302 -.00000595  00000-0 -42044-4 0  9998,2 55316  69.9999  96.8169 0002783 270.7026  89.3814 14.98329881 82428,6950.193,96.107,573.992,570.124,0.0
55316.0,STARLINK-5257,PAYLOAD,2024-07-10 10:20:04,14.98330889,0.0002859,70.0,95.4709,271.45,88.6332,-1.3286e-05,-2.52e-06,0.0,0 STARLINK-5257,1 55316U 23010AZ  24192.43061138 -.00000252  00000-0 -13286-4 0  9995,2 55316  70.0000  95.4709 0002859 271.4500  88.6332 14.98330889 83684,6950.19,96.107,574.042,570.068,0.0
55316.0,STARLINK-5257,PAYLOAD,2024-07-10 21:33:01,14.98331942,0.0002911,69.9999,94.2927,270.0892,89.9933,2.552e-05,2.12e-06,0.0,0 STARLINK-5257,1 55316U 23010AZ  24192.89792932  .00000212  00000-0  25520-4 0  9996,2 55316  69.9999  94.2927 0002911 270.0892  89.9933 14.98331942 83755,6950.187,96.107,574.075,570.029,0.0
55316.0,STARLINK-5257,PAYLOAD,2024-07-11 03:57:32,14.98337626,0.000284,70.0,93.62,267.9489,92.1345,7.2948e-05,7.78e-06,0.0,0 STARLINK-5257,1 55316U 23010AZ  24193.16496369  .00000778  00000-0  72948-4 0  9995,2 55316  70.0000  93.6200 0002840 267.9489  92.1345 14.98337626 82618,6950.169,96.107,574.008,570.06,0.0
55316.0,STARLINK-5257,PAYLOAD,2024-07-12 03:59:34,14.98331391,0.0002777,70.0001,91.0951,269.1306,90.9534,0.00010092,1.111e-05,0.0,0 STARLINK-5257,1 55316U 23010AZ  24194.16636717  .00001111  00000-0  10092-3 0  9992,2 55316  70.0001  91.0951 0002777 269.1306  90.9534 14.98331391 82760,6950.189,96.107,573.984,570.124,0.0
55316.0,STARLINK-5257,PAYLOAD,2024-07-12 10:24:06,14.98329332,0.0002752,70.0001,90.4219,268.8936,91.1908,7.6067e-05,8.15e-06,0.0,0 STARLINK-5257,1 55316U 23010AZ  24194.43340905  .00000815  00000-0  76067-4 0  9998,2 55316  70.0001  90.4219 0002752 268.8936  91.1908 14.98329332 83983,6950.195,96.107,573.973,570.147,0.0
55316.0,STARLINK-5257,PAYLOAD,2024-07-12 23:13:10,14.98335511,0.0002667,70.0002,89.0751,267.035,93.0504,3.5335e-05,3.29e-06,0.0,0 STARLINK-5257,1 55316U 23010AZ  24194.96748528  .00000329  00000-0  35335-4 0  9992,2 55316  70.0002  89.0751 0002667 267.0350  93.0504 14.98335511 84064,6950.176,96.107,573.894,570.187,0.0
55316.0,STARLINK-5257,PAYLOAD,2024-07-13 10:26:08,14.98319507,0.0002691,70.0001,87.8971,271.9447,88.1404,-0.00013698,-1.726e-05,0.0,0 STARLINK-5257,1 55316U 23010AZ  24195.43482056 -.00001726  00000-0 -13698-3 0  9997,2 55316  70.0001  87.8971 0002691 271.9447  88.1404 14.98319507 82958,6950.225,96.108,573.961,570.22,0.0
55316.0,STARLINK-5257,PAYLOAD,2024-07-13 21:39:05,14.98312287,0.0002874,69.9997,86.7164,270.2628,89.8202,-0.0001541,-1.93e-05,0.0,0 STARLINK-5257,1 55316U 23010AZ  24195.90214970 -.00001930  00000-0 -15410-3 0  9998,2 55316  69.9997  86.7164 0002874 270.2628  89.8202 14.98312287 83028,6950.248,96.108,574.11,570.115,0.0
55316.0,STARLINK-5257,PAYLOAD,2024-07-13 23:15:13,14.98313763,0.0002891,69.9993,86.5476,269.849,90.2338,-0.00013899,-1.75e-05,0.0,0 STARLINK-5257,1 55316U 23010AZ  24195.96890886 -.00001750  00000-0 -13899-3 0  9999,2 55316  69.9993  86.5476 0002891 269.8490  90.2338 14.98313763 84216,6950.243,96.108,574.117,570.099,0.0
55316.0,STARLINK-5257,PAYLOAD,2024-07-14 10:28:09,14.98323344,0.0002984,69.9996,85.3718,269.5616,90.5201,-3.0778e-05,-4.6e-06,0.0,0 STARLINK-5257,1 55316U 23010AZ  24196.43622409 -.00000460  00000-0 -30778-4 0  9999,2 55316  69.9996  85.3718 0002984 269.5616  90.5201 14.98323344 83100,6950.213,96.107,574.152,570.005,0.0
55316.0,STARLINK-5257,PAYLOAD,2024-07-14 21:41:05,14.98329501,0.0003149,69.9993,84.1934,270.0552,90.0246,9.8904e-05,1.087e-05,0.0,0 STARLINK-5257,1 55316U 23010AZ  24196.90353888  .00001087  00000-0  98904-4 0  9992,2 55316  69.9993  84.1934 0003149 270.0552  90.0246 14.98329501 83176,6950.194,96.107,574.248,569.871,0.0
55316.0,STARLINK-5257,PAYLOAD,2024-07-15 02:29:29,14.98341134,0.000305,69.9994,83.6879,268.9892,91.0917,0.00018613,2.129e-05,0.0,0 STARLINK-5257,1 55316U 23010AZ  24197.10381029  .00002129  00000-0  18613-3 0  9999,2 55316  69.9994  83.6879 0003050 268.9892  91.0917 14.98341134 83209,6950.158,96.106,574.143,569.904,0.0
55316.0,STARLINK-5257,PAYLOAD,2024-07-15 20:06:58,14.98340813,0.0003093,70.0008,81.8359,269.8606,90.2198,0.00060923,7.186e-05,0.0,0 STARLINK-5257,1 55316U 23010AZ  24197.83817612  .00007186  00000-0  60923-3 0  9990,2 55316  70.0008  81.8359 0003093 269.8606  90.2198 14.98340813 83318,6950.159,96.106,574.174,569.875,0.0
55316.0,STARLINK-5257,PAYLOAD,2024-07-15 23:19:14,14.98353784,0.0003173,70.0012,81.4997,269.9121,90.1674,0.00069846,8.256e-05,0.0,0 STARLINK-5257,1 55316U 23010AZ  24197.97169180  .00008256  00000-0  69846-3 0  9997,2 55316  70.0012  81.4997 0003173 269.9121  90.1674 14.98353784 84511,6950.119,96.105,574.19,569.779,0.0
55316.0,STARLINK-5257,PAYLOAD,2024-07-16 02:31:29,14.98362896,0.0003175,70.0014,81.1628,269.4999,90.5797,0.00083752,9.923e-05,0.0,0 STARLINK-5257,1 55316U 23010AZ  24198.10520751  .00009923  00000-0  83752-3 0  9992,2 55316  70.0014  81.1628 0003175 269.4999  90.5797 14.98362896 83356,6950.091,96.105,574.163,569.75,0.0
55316.0,STARLINK-5257,PAYLOAD,2024-07-16 20:08:58,14.98349391,0.000255,70.0033,79.3142,259.5796,100.5075,-7.6676e-06,-1.84e-06,0.0,0 STARLINK-5257,1 55316U 23010AZ  24198.83956137 -.00000184  00000-0 -76676-5 0  9994,2 55316  70.0033  79.3142 0002550 259.5796 100.5075 14.98349391 83466,6950.133,96.106,573.77,570.226,0.0
55316.0,STARLINK-5257,PAYLOAD,2024-07-16 21:45:06,14.98346753,0.0002827,70.0024,79.1447,264.3349,95.7488,4.9362e-05,4.96e-06,0.0,0 STARLINK-5257,1 55316U 23010AZ  24198.90632207  .00000496  00000-0  49362-4 0  9996,2 55316  70.0024  79.1447 0002827 264.3349  95.7488 14.98346753 84651,6950.141,96.106,573.971,570.041,0.0
